     2.100          NAVIGATION                              RINEX VERSION / TYPE
fic2rin                                 02/25/2012 00:06:37 PGM / RUN BY / DATE
                                                            END OF HEADER
 9 12  2 24 10  0  0.0  .140599440783D-03  .250111042988D-11  .000000000000D+00
     .880000000000D+02  .878125000000D+01  .374944189359D-08  .903223083530D+00
     .357627868652D-06  .172179590445D-01  .119432806969D-04  .515363940811D+04
     .468000000000D+06 -.223517417908D-06 -.263119049235D+01 -.162050127983D-06
     .984707762448D+00  .165906250000D+03  .160470849558D+01 -.790318634229D-08
     .914323799542D-10  .100000000000D+01  .167600000000D+04  .000000000000D+00
     .340000000000D+01  .000000000000D+00 -.558793544769D-08  .880000000000D+02
     .460806000000D+06  .400000000000D+01
10 12  2 24 10  0  0.0 -.300388783216D-04 -.125055521494D-11  .000000000000D+00
     .970000000000D+02  .610000000000D+02  .514307137242D-08 -.919376136346D+00
     .326894223690D-05  .111915394664D-01  .436045229435D-05  .515367242050D+04
     .468000000000D+06  .188127160072D-06  .159113272845D+01  .173225998878D-06
     .946229210450D+00  .286656250000D+03  .745302757766D+00 -.858142887953D-08
     .202865593023D-09  .100000000000D+01  .167600000000D+04  .000000000000D+00
     .340000000000D+01  .000000000000D+00 -.232830643654D-08  .970000000000D+02
     .460806000000D+06  .400000000000D+01
11 12  2 24 10  0  0.0 -.235469546169D-03 -.363797880709D-11  .000000000000D+00
     .710000000000D+02 -.396250000000D+02  .601739350574D-08  .172545360647D+01
    -.211410224438D-05  .127556758234D-01  .120084732771D-04  .515368409538D+04
     .468000000000D+06 -.294297933578D-06  .254695747752D+00 -.199303030968D-06
     .888533822154D+00  .111093750000D+03  .102995378957D+01 -.872179186907D-08
    -.199651173416D-09  .100000000000D+01  .167600000000D+04  .000000000000D+00
     .340000000000D+01  .000000000000D+00 -.116415321827D-07  .710000000000D+02
     .460806000000D+06  .400000000000D+01
13 12  2 24 10  0  0.0  .223172828555D-03 -.216004991671D-11  .000000000000D+00
     .800000000000D+01 -.675312500000D+02  .402659629533D-08 -.232876048693D+01
    -.345893204212D-05  .480087066535D-02  .671297311783D-05  .515370906448D+04
     .468000000000D+06  .912696123123D-07  .270759505512D+01  .763684511185D-07
     .986851288534D+00  .263687500000D+03  .194016739057D+01 -.785068415536D-08
    -.473948313278D-09  .100000000000D+01  .167600000000D+04  .000000000000D+00
     .240000000000D+01  .000000000000D+00 -.111758708954D-07  .800000000000D+01
     .460806000000D+06  .400000000000D+01
14 12  2 24 10  0  0.0  .194954220206D-03  .125055521494D-11  .000000000000D+00
     .670000000000D+02 -.701562500000D+02  .410909973193D-08 -.231136836737D+01
    -.356696546078D-05  .614905450493D-02  .708550214767D-05  .515355827332D+04
     .468000000000D+06  .447034835815D-07  .268155248005D+01 -.484287738800D-07
     .979714445611D+00  .253531250000D+03 -.204834715722D+01 -.784746973576D-08
    -.435732435719D-09  .100000000000D+01  .167600000000D+04  .000000000000D+00
     .240000000000D+01  .000000000000D+00 -.884756445885D-08  .670000000000D+02
     .460806000000D+06  .400000000000D+01
15 12  2 24 10  0  0.0 -.926530919969D-04  .454747350886D-12  .000000000000D+00
     .960000000000D+02 -.663437500000D+02  .494663461862D-08 -.270136418273D+01
    -.340864062309D-05  .435320718680D-02  .589154660702D-05  .515377163696D+04
     .468000000000D+06 -.689178705215D-07  .259683743956D+01 -.149011611938D-07
     .946544363966D+00  .260531250000D+03  .399156788311D-01 -.836784855448D-08
    -.399302346831D-09  .100000000000D+01  .167600000000D+04  .000000000000D+00
     .240000000000D+01  .000000000000D+00 -.102445483208D-07  .960000000000D+02
     .460806000000D+06  .400000000000D+01
16 12  2 24 10  0  0.0 -.224748626351D-03 -.159161572810D-11  .000000000000D+00
     .690000000000D+02  .429687500000D+02  .446447167745D-08 -.903703571658D+00
     .210851430893D-05  .646985473577D-02  .465475022793D-05  .515361279106D+04
     .468000000000D+06  .558793544769D-07 -.153072313411D+01 -.137835741043D-06
     .979157401516D+00  .295531250000D+03 -.765972276106D-01 -.818426947910D-08
     .446090010011D-09  .100000000000D+01  .167600000000D+04  .000000000000D+00
     .240000000000D+01  .000000000000D+00 -.977888703346D-08  .690000000000D+02
     .460806000000D+06  .400000000000D+01
17 12  2 24 10  0  0.0  .146751292050D-03 -.238742359215D-11  .000000000000D+00
     .310000000000D+02 -.810937500000D+02  .472805408529D-08 -.187993393450D+01
    -.412762165070D-05  .719731580466D-02  .615045428276D-05  .515364048386D+04
     .468000000000D+06  .102445483208D-06 -.489217495312D+00 -.447034835815D-07
     .962673046031D+00  .260531250000D+03 -.233798597311D+01 -.814855370568D-08
    -.312870175156D-09  .100000000000D+01  .167600000000D+04  .000000000000D+00
     .240000000000D+01  .000000000000D+00 -.107102096081D-07  .310000000000D+02
     .460806000000D+06  .400000000000D+01
18 12  2 24 10  0  0.0  .183119904250D-03  .181898940355D-11  .000000000000D+00
     .790000000000D+02  .616875000000D+02  .569166565215D-08 -.412968907413D+00
     .331737101078D-05  .128565113991D-01  .396184623241D-05  .515366777420D+04
     .468000000000D+06  .242143869400D-07  .158135914100D+01  .178813934326D-06
     .930073192299D+00  .288218750000D+03 -.219550364921D+01 -.902787604727D-08
     .212866009581D-09  .100000000000D+01  .167600000000D+04  .000000000000D+00
     .240000000000D+01  .000000000000D+00 -.107102096081D-07  .790000000000D+02
     .460806000000D+06  .400000000000D+01
19 12  2 24 10  0  0.0 -.239078886807D-03 -.386535248253D-11  .000000000000D+00
     .510000000000D+02 -.797500000000D+02  .479162816197D-08 -.269633556275D+01
    -.412575900555D-05  .793622923084D-02  .734813511372D-05  .515375031471D+04
     .468000000000D+06 -.111758708954D-06 -.435932543163D+00 -.800937414169D-07
     .960120887426D+00  .238906250000D+03  .140015620190D+00 -.812712424163D-08
    -.415731602604D-09  .100000000000D+01  .167600000000D+04  .000000000000D+00
     .240000000000D+01  .000000000000D+00 -.144354999065D-07  .510000000000D+02
     .460806000000D+06  .400000000000D+01
21 12  2 24 10  0  0.0 -.206456054002D-03 -.250111042988D-11  .000000000000D+00
     .390000000000D+02  .260000000000D+02  .510414117940D-08  .644247514809D+00
     .166706740856D-05  .186394741759D-01  .118371099234D-04  .515365439987D+04
     .468000000000D+06 -.191852450371D-06  .529568695096D+00  .175088644028D-06
     .931852545410D+00  .139781250000D+03 -.228927490894D+01 -.850571143988D-08
    -.138577200868D-09  .100000000000D+01  .167600000000D+04  .000000000000D+00
     .240000000000D+01  .000000000000D+00 -.111758708954D-07  .390000000000D+02
     .460806000000D+06  .400000000000D+01
22 12  2 24 10  0  0.0  .142965931445D-03  .113686837722D-12  .000000000000D+00
     .460000000000D+02  .628750000000D+02  .559237580204D-08 -.126147343759D+01
     .319629907608D-05  .575902813580D-02  .401027500629D-05  .515368535995D+04
     .468000000000D+06  .109896063805D-06  .158493440891D+01  .134110450745D-06
     .927786948313D+00  .285250000000D+03 -.200233096663D+01 -.879143762724D-08
     .180007498035D-09  .100000000000D+01  .167600000000D+04  .000000000000D+00
     .240000000000D+01  .000000000000D+00 -.167638063431D-07  .460000000000D+02
     .460806000000D+06  .400000000000D+01
23 12  2 24 10  0  0.0  .230086036026D-03 -.341060513165D-11  .000000000000D+00
     .900000000000D+01 -.680312500000D+02  .464590780642D-08 -.313976016729D+01
    -.353343784809D-05  .757338595577D-02  .596605241299D-05  .515366556740D+04
     .468000000000D+06 -.651925802231D-07  .263116564176D+01 -.186264514923D-08
     .961257548441D+00  .265531250000D+03 -.302901494997D+01 -.815426822943D-08
    -.436803908922D-09  .100000000000D+01  .167600000000D+04  .000000000000D+00
     .240000000000D+01  .000000000000D+00 -.200234353542D-07  .900000000000D+01
     .460806000000D+06  .400000000000D+01
26 12  2 24 10  0  0.0 -.565936788917D-04 -.609361450188D-10  .000000000000D+00
     .175000000000D+03 -.749062500000D+02  .391052003171D-08  .301020122514D+01
    -.386312603951D-05  .208279982908D-01  .693462789059D-05  .515365698433D+04
     .468000000000D+06  .150874257088D-06  .270188152469D+01 -.230967998505D-06
     .984408060273D+00  .255531250000D+03  .117307343227D+01 -.755817197106D-08
    -.442518432669D-09  .100000000000D+01  .167600000000D+04  .000000000000D+00
     .340000000000D+01  .000000000000D+00 -.605359673500D-08  .175000000000D+03
     .460806000000D+06  .400000000000D+01
27 12  2 24 10  0  0.0  .360083300620D-03  .397903932026D-11  .000000000000D+00
     .112000000000D+03  .212812500000D+02  .357836333891D-08 -.230723775234D+01
     .139512121677D-05  .219274197007D-01  .119507312775D-04  .515377926064D+04
     .468000000000D+06  .121071934700D-06 -.265780630455D+01  .398606061935D-06
     .982208476628D+00  .154875000000D+03 -.112093200515D+01 -.730780439939D-08
     .140362989539D-09  .100000000000D+01  .167600000000D+04  .000000000000D+00
     .240000000000D+01  .000000000000D+00 -.419095158577D-08  .112000000000D+03
     .460806000000D+06  .400000000000D+01
28 12  2 24 10  0  0.0  .115962699056D-03  .386535248253D-11  .000000000000D+00
     .100000000000D+03  .493750000000D+02  .446090010011D-08 -.130428594438D+01
     .301375985146D-05  .178852101089D-01  .457838177681D-05  .515370517731D+04
     .468000000000D+06  .106170773506D-06 -.152385744013D+01  .420957803726D-06
     .977499826094D+00  .300093750000D+03 -.183859097720D+01 -.818391232137D-08
     .388230457071D-09  .100000000000D+01  .167600000000D+04  .000000000000D+00
     .340000000000D+01  .000000000000D+00 -.107102096081D-07  .100000000000D+03
     .460806000000D+06  .400000000000D+01
